NORAD_CAT_ID,OBJECT_NAME,OBJECT_TYPE,EPOCH,MEAN_MOTION,ECCENTRICITY,INCLINATION,RA_OF_ASC_NODE,ARG_OF_PERICENTER,MEAN_ANOMALY,BSTAR,MEAN_MOTION_DOT,MEAN_MOTION_DDOT,TLE_LINE0,TLE_LINE1,TLE_LINE2,SEMIMAJOR_AXIS,PERIOD,APOGEE,PERIGEE,DECAYED
49157.0,STARLINK-3051,PAYLOAD,2023-11-08 06:20:12,14.98341096,0.0002952,70.0015,263.7128,264.0641,96.0182,0.001847,0.00022021,0.0,0 STARLINK-3051,1 49157U 21082AD  23312.26403221  .00022021  00000-0  18470-2 0  9999,2 49157  70.0015 263.7128 0002952 264.0641  96.0182 14.98341096119889,6950.159,96.106,574.075,569.972,0.0
49157.0,STARLINK-3051,PAYLOAD,2023-11-08 22:21:32,14.98360656,0.0002299,70.0017,262.0281,269.6859,90.4037,0.0011378,0.0001352,0.0,0 STARLINK-3051,1 49157U 21082AD  23312.93162526  .00013520  00000-0  11378-2 0  9997,2 49157  70.0017 262.0281 0002299 269.6859  90.4037 14.98360656119980,6950.098,96.105,573.561,570.365,0.0
49157.0,STARLINK-3051,PAYLOAD,2023-11-09 03:09:56,14.9836579,0.0002397,70.0019,261.5252,261.2329,98.8559,0.0012339,0.00014674,0.0,0 STARLINK-3051,1 49157U 21082AD  23313.13189998  .00014674  00000-0  12339-2 0  9991,2 49157  70.0019 261.5252 0002397 261.2329  98.8559 14.98365790120014,6950.082,96.105,573.613,570.281,0.0
49157.0,STARLINK-3051,PAYLOAD,2023-11-09 06:22:11,14.98372366,0.0002294,70.0018,261.1867,275.2009,84.8888,0.0012604,0.00014994,0.0,0 STARLINK-3051,1 49157U 21082AD  23313.26541582  .00014994  00000-0  12604-2 0  9996,2 49157  70.0018 261.1867 0002294 275.2009  84.8888 14.98372366120036,6950.062,96.104,573.521,570.333,0.0
49157.0,STARLINK-3051,PAYLOAD,2023-11-09 22:23:32,14.98343859,0.0002773,70.001,259.5067,261.3785,98.7059,-9.0893e-06,-2.01e-06,0.0,0 STARLINK-3051,1 49157U 21082AD  23313.93301371 -.00000201  00000-0 -90893-5 0  9997,2 49157  70.0010 259.5067 0002773 261.3785  98.7059 14.98343859120130,6950.15,96.106,573.942,570.088,0.0
49157.0,STARLINK-3051,PAYLOAD,2023-11-10 03:11:56,14.98338875,0.0002807,70.0005,258.9987,267.6287,92.455,-3.6039e-05,-5.23e-06,0.0,0 STARLINK-3051,1 49157U 21082AD  23314.13329374 -.00000523  00000-0 -36039-4 0  9991,2 49157  70.0005 258.9987 0002807 267.6287  92.4550 14.98338875120164,6950.165,96.106,573.981,570.08,0.0
49157.0,STARLINK-3051,PAYLOAD,2023-11-10 06:24:12,14.98342147,0.0002669,70.001,258.6627,265.3163,94.7691,5.8247e-05,6.02e-06,0.0,0 STARLINK-3051,1 49157U 21082AD  23314.26681308  .00000602  00000-0  58247-4 0  9994,2 49157  70.0010 258.6627 0002669 265.3163  94.7691 14.98342147120182,6950.155,96.106,573.875,570.165,0.0
49157.0,STARLINK-3051,PAYLOAD,2023-11-10 22:25:33,14.98333457,0.0002595,70.0014,256.9788,266.1704,93.9159,9.0882e-05,9.92e-06,0.0,0 STARLINK-3051,1 49157U 21082AD  23314.93441425  .00000992  00000-0  90882-4 0  9995,2 49157  70.0014 256.9788 0002595 266.1704  93.9159 14.98333457120288,6950.182,96.107,573.851,570.244,0.0
49157.0,STARLINK-3051,PAYLOAD,2023-11-11 03:13:57,14.9833676,0.0002535,70.0013,256.474,265.9736,94.1134,-6.463e-05,-8.64e-06,0.0,0 STARLINK-3051,1 49157U 21082AD  23315.13469273 -.00000864  00000-0 -64630-4 0  9991,2 49157  70.0013 256.4740 0002535 265.9736  94.1134 14.98336760120316,6950.172,96.107,573.799,570.275,0.0
49157.0,STARLINK-3051,PAYLOAD,2023-11-11 06:26:13,14.9834271,0.0002482,70.0011,256.1377,265.2764,94.8112,-2.033e-05,-3.36e-06,0.0,0 STARLINK-3051,1 49157U 21082AD  23315.26821046 -.00000336  00000-0 -20330-4 0  9998,2 49157  70.0011 256.1377 0002482 265.2764  94.8112 14.98342710120339,6950.154,96.106,573.744,570.294,0.0
49157.0,STARLINK-3051,PAYLOAD,2023-11-11 22:27:34,14.98331393,0.0002441,70.0014,254.4545,265.3259,94.7621,0.00011247,1.249e-05,0.0,0 STARLINK-3051,1 49157U 21082AD  23315.93581498  .00001249  00000-0  11247-3 0  9994,2 49157  70.0014 254.4545 0002441 265.3259  94.7621 14.98331393120435,6950.189,96.107,573.75,570.357,0.0
49157.0,STARLINK-3051,PAYLOAD,2023-11-12 03:15:58,14.98332642,0.0002426,70.0013,253.9496,265.2536,94.8346,0.00011867,1.323e-05,0.0,0 STARLINK-3051,1 49157U 21082AD  23316.13609408  .00001323  00000-0  11867-3 0  9990,2 49157  70.0013 253.9496 0002426 265.2536  94.8346 14.98332642120469,6950.185,96.107,573.736,570.364,0.0
49157.0,STARLINK-3051,PAYLOAD,2023-11-12 12:52:46,14.9833559,0.000238,70.0015,252.9391,268.4554,91.6332,0.0001105,1.226e-05,0.0,0 STARLINK-3051,1 49157U 21082AD  23316.53665263  .00001226  00000-0  11050-3 0  9991,2 49157  70.0015 252.9391 0002380 268.4554  91.6332 14.98335590120520,6950.176,96.107,573.695,570.386,0.0
49157.0,STARLINK-3051,PAYLOAD,2023-11-12 22:29:35,14.98335654,0.0002339,70.0,251.9298,265.5247,94.5645,0.00015942,1.81e-05,0.0,0 STARLINK-3051,1 49157U 21082AD  23316.93721207  .00001810  00000-0  15942-3 0  9999,2 49157  70.0000 251.9298 0002339 265.5247  94.5645 14.98335654120586,6950.175,96.107,573.666,570.415,0.0
49157.0,STARLINK-3051,PAYLOAD,2023-11-13 03:17:59,14.98336738,0.0002331,70.0,251.4249,265.3122,94.7771,0.00016029,1.82e-05,0.0,0 STARLINK-3051,1 49157U 21082AD  23317.13749071  .00001820  00000-0  16029-3 0  9999,2 49157  70.0000 251.4249 0002331 265.3122  94.7771 14.98336738120619,6950.172,96.107,573.657,570.417,0.0
49157.0,STARLINK-3051,PAYLOAD,2023-11-13 12:54:48,14.98319416,0.0002191,70.0003,250.4136,274.2502,85.8407,0.00032149,3.744e-05,0.0,0 STARLINK-3051,1 49157U 21082AD  23317.53806114  .00003744  00000-0  32149-3 0  9993,2 49157  70.0003 250.4136 0002191 274.2502  85.8407 14.98319416120678,6950.226,96.108,573.613,570.568,0.0
49157.0,STARLINK-3051,PAYLOAD,2023-11-13 19:19:20,14.98328954,0.0002117,70.001,249.7424,268.3387,91.753,0.00010191,1.123e-05,0.0,0 STARLINK-3051,1 49157U 21082AD  23317.80509619  .00001123  00000-0  10191-3 0  9995,2 49157  70.0010 249.7424 0002117 268.3387  91.7530 14.98328954120715,6950.196,96.107,573.532,570.59,0.0
49157.0,STARLINK-3051,PAYLOAD,2023-11-14 12:56:49,14.98313328,0.0002606,70.0,247.8916,279.7786,80.3078,0.00039136,4.578e-05,0.0,0 STARLINK-3051,1 49157U 21082AD  23318.53946398  .00004578  00000-0  39136-3 0  9992,2 49157  70.0000 247.8916 0002606 279.7786  80.3078 14.98313328120823,6950.244,96.108,573.921,570.298,0.0
49157.0,STARLINK-3051,PAYLOAD,2023-11-15 04:58:09,14.98322743,0.0002222,70.0007,246.2073,272.7304,87.3601,0.00023887,2.758e-05,0.0,0 STARLINK-3051,1 49157U 21082AD  23319.20705915  .00002758  00000-0  23887-3 0  9999,2 49157  70.0007 246.2073 0002222 272.7304  87.3601 14.98322743120921,6950.215,96.107,573.625,570.536,0.0
49157.0,STARLINK-3051,PAYLOAD,2023-11-15 19:23:22,14.98329071,0.0002452,70.0007,244.6914,274.8032,85.2847,0.00021339,2.454e-05,0.0,0 STARLINK-3051,1 49157U 21082AD  23319.80789404  .00002454  00000-0  21339-3 0  9993,2 49157  70.0007 244.6914 0002452 274.8032  85.2847 14.98329071121014,6950.196,96.107,573.765,570.357,0.0
49157.0,STARLINK-3051,PAYLOAD,2023-11-16 01:47:54,14.98332417,0.0002146,70.0009,244.0175,268.3947,91.6966,0.00015949,1.811e-05,0.0,0 STARLINK-3051,1 49157U 21082AD  23320.07493296  .00001811  00000-0  15949-3 0  9991,2 49157  70.0009 244.0175 0002146 268.3947  91.6966 14.98332417121057,6950.185,96.107,573.542,570.559,0.0
49157.0,STARLINK-3051,PAYLOAD,2023-11-16 05:00:10,14.98331337,0.0002255,70.0019,243.681,270.0014,90.0886,0.00014008,1.579e-05,0.0,0 STARLINK-3051,1 49157U 21082AD  23320.20845405  .00001579  00000-0  14008-3 0  9995,2 49157  70.0019 243.6810 0002255 270.0014  90.0886 14.98331337121071,6950.189,96.107,573.621,570.486,0.0
49157.0,STARLINK-3051,PAYLOAD,2023-11-17 05:02:11,14.98315761,0.0002048,70.0025,241.1557,281.6184,78.4745,0.00043875,5.144e-05,0.0,0 STARLINK-3051,1 49157U 21082AD  23321.20985708  .00005144  00000-0  43875-3 0  9993,2 49157  70.0025 241.1557 0002048 281.6184  78.4745 14.98315761121229,6950.237,96.108,573.525,570.679,0.0
49157.0,STARLINK-3051,PAYLOAD,2023-11-17 17:51:15,14.98331622,0.0002585,70.0011,239.8112,272.1584,87.9279,3.1198e-05,2.79e-06,0.0,0 STARLINK-3051,1 49157U 21082AD  23321.74393373  .00000279  00000-0  31198-4 0  9993,2 49157  70.0011 239.8112 0002585 272.1584  87.9279 14.98331622121300,6950.188,96.107,573.849,570.256,0.0
49157.0,STARLINK-3051,PAYLOAD,2023-11-17 22:39:40,14.98330526,0.0002617,69.9999,239.3058,271.9783,88.1077,1.5148e-05,8.8e-07,0.0,0 STARLINK-3051,1 49157U 21082AD  23321.94421418  .00000088  00000-0  15148-4 0  9992,2 49157  69.9999 239.3058 0002617 271.9783  88.1077 14.98330526121334,6950.191,96.107,573.875,570.237,0.0
49157.0,STARLINK-3051,PAYLOAD,2023-11-18 11:28:44,14.98332954,0.0002594,70.0,237.9592,272.5731,87.5131,3.4553e-05,3.19e-06,0.0,0 STARLINK-3051,1 49157U 21082AD  23322.47829166  .00000319  00000-0  34553-4 0  9991,2 49157  70.0000 237.9592 0002594 272.5731  87.5131 14.98332954121411,6950.184,96.107,573.852,570.246,0.0
49157.0,STARLINK-3051,PAYLOAD,2023-11-19 03:30:04,14.98333125,0.0002632,69.9998,236.2758,272.8638,87.2219,9.893e-05,1.088e-05,0.0,0 STARLINK-3051,1 49157U 21082AD  23323.14588744  .00001088  00000-0  98930-4 0  9993,2 49157  69.9998 236.2758 0002632 272.8638  87.2219 14.98333125121518,6950.183,96.107,573.878,570.219,0.0
49157.0,STARLINK-3051,PAYLOAD,2023-11-19 11:30:45,14.98331508,0.0002626,69.9998,235.4341,273.1373,86.9485,7.4639e-05,7.98e-06,0.0,0 STARLINK-3051,1 49157U 21082AD  23323.47968924  .00000798  00000-0  74639-4 0  9998,2 49157  69.9998 235.4341 0002626 273.1373  86.9485 14.98331508121569,6950.188,96.107,573.878,570.228,0.0
49157.0,STARLINK-3051,PAYLOAD,2023-11-19 22:43:41,14.98331236,0.0002616,69.9998,234.2559,273.0209,87.0651,6.5796e-05,6.92e-06,0.0,0 STARLINK-3051,1 49157U 21082AD  23323.94700861  .00000692  00000-0  65796-4 0  9991,2 49157  69.9998 234.2559 0002616 273.0209  87.0651 14.98331236121636,6950.189,96.107,573.872,570.236,0.0
49157.0,STARLINK-3051,PAYLOAD,2023-11-20 03:32:05,14.98335442,0.0002595,69.9995,233.7509,273.3037,86.7825,0.00011692,1.303e-05,0.0,0 STARLINK-3051,1 49157U 21082AD  23324.14728461  .00001303  00000-0  11692-3 0  9995,2 49157  69.9995 233.7509 0002595 273.3037  86.7825 14.98335442121665,6950.176,96.107,573.845,570.237,0.0
